#aV2007 11 23  0  0   .00000000      96 DD+AD WGS84 FIT  NGA
## 1454 432000.00000000   900.00000000 54427  .0000000000000
+   31     1  2  3  4  5  6  7  8  9 10 11 12 13 14 15 16 17
+         18 19 20 21 22 23 24 25 26 27 28 30 31 32  0  0  0
+          0  0  0  0  0  0  0  0  0  0  0  0  0  0  0  0  0
+          0  0  0  0  0  0  0  0  0  0  0  0  0  0  0  0  0
+          0  0  0  0  0  0  0  0  0  0  0  0  0  0  0  0  0
++         0  0  0  0  0  0  0  0  0  0  0  0  0  0  0  0  0
++         0  0  0  0  0  0  0  0  0  0  0  0  0  0  0  0  0
++         0  0  0  0  0  0  0  0  0  0  0  0  0  0  0  0  0
++         0  0  0  0  0  0  0  0  0  0  0  0  0  0  0  0  0
++         0  0  0  0  0  0  0  0  0  0  0  0  0  0  0  0  0
%c cc cc ccc ccc cccc cccc cccc cccc ccccc ccccc ccccc ccccc
%c cc cc ccc ccc cccc cccc cccc cccc ccccc ccccc ccccc ccccc
%f  0.0000000  0.000000000  0.00000000000  0.000000000000000
%f  0.0000000  0.000000000  0.00000000000  0.000000000000000
%i    0    0    0    0      0      0      0      0         0
%i    0    0    0    0      0      0      0      0         0
/*      NGA, ST. LOUIS,MO.                                  
/*   EPHEMERIS COMPUTED FROM  3 DAYS OF DATA                
/* CCCCCCCCCCCCCCCCCCCCCCCCCCCCCCCCCCCCCCCCCCCCCCCCCCCCCCCCC
/* CCCCCCCCCCCCCCCCCCCCCCCCCCCCCCCCCCCCCCCCCCCCCCCCCCCCCCCCC
*  2007 11 23 14 30   .00000000                                                 
P  1  14544.410232    753.141042 -21995.474595    168.311569                    
V  1   2578.698124  28257.443959   2570.639655       .022632                    
P  2 -22729.735815  10777.407866  -8195.859517    153.234238                    
V  2   5918.026247  -9005.468834 -29230.402358       .028015                    
P  3  13161.118239 -10304.374226  20336.947948    148.330072                    
V  3   7777.858038  25443.787715   8112.040311       .054956                    
P  4 -20684.604282    579.782391 -16932.185499    -28.014107                    
V  4  15651.596715 -14489.799889 -19347.497418      -.045970                    
P  5   3936.760075  16750.142370 -20527.770737    557.077927                    
V  5 -24764.820559  -6243.107181  -9829.850228       .228411                    
P  6   7499.335769  25237.385066   3572.102766    209.961150                    
V  6  -2770.426150   4947.337562 -30708.019682      -.099169                    
P  7   9996.174338  23832.762506   6389.959728    -23.435879                    
V  7  -1733.376739   8282.990516 -29767.305274       .017022                    
P  8 -15007.349227  -6463.736518  20939.647749   -130.781460                    
V  8  21359.247368 -15947.849108   9882.967106      -.012596                    
P  9 -11759.164403  20873.068161 -11877.766983     97.956276                    
V  9 -12151.988225   7638.292147  27026.467636       .016391                    
P 10 -20404.397040   3857.347685  16626.586406   -151.954409                    
V 10 -18926.760665  -9668.294261 -20515.429176      -.121278                    
P 11   7647.237130 -22653.333836 -11366.224204     26.141867                    
V 11  12816.884385  -8095.205254  25371.892696       .002988                    
P 12  -2742.842962  15090.413401 -21599.958723   -349.229165                    
V 12 -25820.802620  -9835.212938  -3510.373791      -.012125                    
P 13  -6188.766538 -25274.672620   5291.113078    223.130906                    
V 13    922.614380  -6963.504144 -31548.609387       .026241                    
P 14  13852.561920  13101.700251 -18432.694276   -318.031413                    
V 14   1876.776553  23457.155272  17891.251619       .026297                    
P 15  -7486.169013  20539.314159  15129.103867    -77.945180                    
V 15  -5091.424923 -18589.057694  22732.616107       .055236                    
P 16  23225.051577   -282.827132  13107.516201    126.118474                    
V 16  14444.711908   8144.679095 -25392.707472       .016852                    
P 17 -14323.028643 -14085.619424 -17430.780590     48.276988                    
V 17  -1464.109097 -22127.826986  18923.135903      -.009460                    
P 18  15628.323405  17225.533065  13307.178060   -223.760926                    
V 18 -16006.591438  -4613.349370  24742.175772       .023483                    
P 19   8907.650800 -20049.134741  14945.436082      8.497544                    
V 19   3751.533711  18655.166351  23071.238093       .019968                    
P 20   -581.837813 -16311.222418 -21063.431949    125.726498                    
V 20  25094.332456   8668.742297  -7400.932275      -.006295                    
P 21   6539.167199  14606.606841  21289.018596     76.193746                    
V 21 -21903.479082  15529.158215  -4545.430305      -.004462                    
P 22  23850.836842  11681.429564   1318.683530    203.687771                    
V 22  -2649.056820   2299.498945  31383.656609       .006693                    
P 23    988.795614 -25521.137072  -6895.777950    311.856898                    
V 23   3795.005080   8250.446439 -30500.047018       .033827                    
P 24  -6514.483170  19552.644132  17098.697291     48.329167                    
V 24 -18237.612829  11047.210871 -19509.066216       .028911                    
P 25   -855.892702 -18245.184642  19700.770684    483.026680                    
V 25  18141.712527 -16021.748751 -14165.491549       .049504                    
P 26  -9230.155916  17494.955912  16981.706992    104.257078                    
V 26  -4034.759383 -22306.154535  20784.266786       .119676                    
P 27  -7311.774709 -13895.936588  22062.099398    149.640120                    
V 27  19927.019730 -17414.526413  -4698.205733       .024751                    
P 28 -22863.549504 -13189.126382   4688.308576    -10.837839                    
V 28   5951.425570    -71.864301  30827.445242      -.006558                    
P 30  10239.286356  17179.691271 -17858.367030     53.538343                    
V 30 -21361.687158  -5636.009906 -17907.095957       .014793                    
P 31  21295.782785  -3511.408262 -15326.723449      1.261652                    
V 31 -14225.671341  13884.940312 -22572.063277      -.014309                    
P 32  24366.892001   5802.618479  -8128.373052    148.361789                    
V 32   8755.034965   7116.945389  29778.148980       .131449                    
EOF
